NORAD_CAT_ID,OBJECT_NAME,OBJECT_TYPE,EPOCH,MEAN_MOTION,ECCENTRICITY,INCLINATION,RA_OF_ASC_NODE,ARG_OF_PERICENTER,MEAN_ANOMALY,BSTAR,MEAN_MOTION_DOT,MEAN_MOTION_DDOT,TLE_LINE0,TLE_LINE1,TLE_LINE2,SEMIMAJOR_AXIS,PERIOD,APOGEE,PERIGEE,DECAYED
49438.0,STARLINK-3044,PAYLOAD,2023-02-06 19:34:26,15.08848359,0.000114,53.2128,227.8579,81.4208,278.6913,0.0002178,3.181e-05,0.0,0 STARLINK-3044,1 49438U 21104AG  23037.81558353  .00003181  00000-0  21780-3 0  9993,2 49438  53.2128 227.8579 0001140  81.4208 278.6913 15.08848359 68797,6917.855,95.437,540.508,538.931,0.0
49438.0,STARLINK-3044,PAYLOAD,2023-02-06 21:09:49,15.08848848,0.0001121,53.2131,227.5608,82.3544,277.7576,0.00032459,4.883e-05,0.0,0 STARLINK-3044,1 49438U 21104AG  23037.88182374  .00004883  00000-0  32459-3 0  9991,2 49438  53.2131 227.5608 0001121  82.3544 277.7576 15.08848848 69871,6917.853,95.437,540.494,538.943,0.0
49438.0,STARLINK-3044,PAYLOAD,2023-02-07 05:06:45,15.08838114,0.0001057,53.2128,226.0736,83.9807,276.1305,0.00015371,2.159e-05,0.0,0 STARLINK-3044,1 49438U 21104AG  23038.21302738  .00002159  00000-0  15371-3 0  9995,2 49438  53.2128 226.0736 0001057  83.9807 276.1305 15.08838114 69924,6917.886,95.438,540.482,539.02,0.0
49438.0,STARLINK-3044,PAYLOAD,2023-02-07 13:03:41,15.08839691,0.0001019,53.2127,224.5867,84.3347,275.7761,0.00011996,1.622e-05,0.0,0 STARLINK-3044,1 49438U 21104AG  23038.54422661  .00001622  00000-0  11996-3 0  9992,2 49438  53.2127 224.5867 0001019  84.3347 275.7761 15.08839691 68902,6917.881,95.438,540.451,539.041,0.0
49438.0,STARLINK-3044,PAYLOAD,2023-02-07 21:00:36,15.08849779,0.0001056,53.2135,223.1,87.2262,272.8851,0.00041848,6.38e-05,0.0,0 STARLINK-3044,1 49438U 21104AG  23038.87542423  .00006380  00000-0  41848-3 0  9992,2 49438  53.2135 223.1000 0001056  87.2262 272.8851 15.08849779 68955,6917.85,95.437,540.446,538.985,0.0
49438.0,STARLINK-3044,PAYLOAD,2023-02-08 11:19:05,15.08841876,0.0001528,53.2123,220.421,84.1486,275.9681,0.00030253,4.53e-05,0.0,0 STARLINK-3044,1 49438U 21104AG  23039.47158764  .00004530  00000-0  30253-3 0  9993,2 49438  53.2123 220.4210 0001528  84.1486 275.9681 15.08841876 69049,6917.875,95.437,540.797,538.683,0.0
49438.0,STARLINK-3044,PAYLOAD,2023-02-08 20:51:23,15.08851747,9.55e-05,53.2133,218.6386,90.958,269.1521,0.00075355,0.00011729,0.0,0 STARLINK-3044,1 49438U 21104AG  23039.86902451  .00011729  00000-0  75355-3 0  9996,2 49438  53.2133 218.6386 0000955  90.9580 269.1521 15.08851747 69109,6917.844,95.437,540.37,539.049,0.0
49438.0,STARLINK-3044,PAYLOAD,2023-02-09 04:48:19,15.08843451,0.00013,53.2134,217.1516,94.1827,265.9313,0.00041277,6.288e-05,0.0,0 STARLINK-3044,1 49438U 21104AG  23040.20022733  .00006288  00000-0  41277-3 0  9992,2 49438  53.2134 217.1516 0001300  94.1827 265.9313 15.08843451 69155,6917.87,95.437,540.634,538.836,0.0
49438.0,STARLINK-3044,PAYLOAD,2023-02-09 19:06:47,15.08844893,0.0001256,53.2132,214.4753,95.8143,264.2992,0.00058992,9.114e-05,0.0,0 STARLINK-3044,1 49438U 21104AG  23040.79638881  .00009114  00000-0  58992-3 0  9996,2 49438  53.2132 214.4753 0001256  95.8143 264.2992 15.08844893 70311,6917.865,95.437,540.599,538.862,0.0
49438.0,STARLINK-3044,PAYLOAD,2023-02-09 22:17:34,15.08850197,0.0001229,53.2131,213.8801,93.4891,266.6242,0.00075633,0.00011773,0.0,0 STARLINK-3044,1 49438U 21104AG  23040.92886779  .00011773  00000-0  75633-3 0  9997,2 49438  53.2131 213.8801 0001229  93.4891 266.6242 15.08850197 69261,6917.849,95.437,540.564,538.864,0.0
49438.0,STARLINK-3044,PAYLOAD,2023-02-10 04:39:07,15.08839343,0.0001438,53.2134,212.6902,85.6505,274.4651,0.00053259,8.198e-05,0.0,0 STARLINK-3044,1 49438U 21104AG  23041.19383296  .00008198  00000-0  53259-3 0  9990,2 49438  53.2134 212.6902 0001438  85.6505 274.4651 15.08839343 70375,6917.882,95.438,540.742,538.753,0.0
49438.0,STARLINK-3044,PAYLOAD,2023-02-10 15:46:49,15.08849356,0.0001396,53.2135,210.6098,80.515,279.6,0.00095299,0.00014915,0.0,0 STARLINK-3044,1 49438U 21104AG  23041.65751288  .00014915  00000-0  95299-3 0  9995,2 49438  53.2135 210.6098 0001396  80.5150 279.6000 15.08849356 69371,6917.852,95.437,540.683,538.751,0.0
49438.0,STARLINK-3044,PAYLOAD,2023-02-10 22:08:21,15.08853681,0.0001148,53.2135,209.4199,83.7,276.4123,0.0012763,0.0002009,0.0,0 STARLINK-3044,1 49438U 21104AG  23041.92247122  .00020090  00000-0  12763-2 0  9997,2 49438  53.2135 209.4199 0001148  83.7000 276.4123 15.08853681 69415,6917.839,95.437,540.498,538.909,0.0
49438.0,STARLINK-3044,PAYLOAD,2023-02-11 17:12:59,15.08854665,0.0001021,53.2141,205.8517,92.0609,268.05,0.00083701,0.00013063,0.0,0 STARLINK-3044,1 49438U 21104AG  23042.71735220  .00013063  00000-0  83701-3 0  9999,2 49438  53.2141 205.8517 0001021  92.0609 268.0500 15.08854665 69536,6917.836,95.437,540.407,538.994,0.0
49438.0,STARLINK-3044,PAYLOAD,2023-02-11 21:59:08,15.08858513,0.0001163,53.2139,204.9618,75.1192,284.9929,0.0014423,0.00022752,0.0,0 STARLINK-3044,1 49438U 21104AG  23042.91607195  .00022752  00000-0  14423-2 0  9999,2 49438  53.2139 204.9618 0001163  75.1192 284.9929 15.08858513 70632,6917.824,95.436,540.493,538.884,0.0
49438.0,STARLINK-3044,PAYLOAD,2023-02-12 04:20:41,15.08833673,0.0001603,53.2149,203.771,76.5128,283.6043,0.00060628,9.372e-05,0.0,0 STARLINK-3044,1 49438U 21104AG  23043.18103856  .00009372  00000-0  60628-3 0  9996,2 49438  53.2149 203.7710 0001603  76.5128 283.6043 15.08833673 70673,6917.9,95.438,540.874,538.656,0.0
49438.0,STARLINK-3044,PAYLOAD,2023-02-12 21:49:56,15.0884937,0.0001949,53.2144,200.5,72.8621,287.2584,0.0013729,0.00021635,0.0,0 STARLINK-3044,1 49438U 21104AG  23043.90968080  .00021635  00000-0  13729-2 0  9999,2 49438  53.2144 200.5000 0001949  72.8621 287.2584 15.08849370 69719,6917.852,95.437,541.065,538.368,0.0
49438.0,STARLINK-3044,PAYLOAD,2023-02-14 02:26:52,15.08829575,0.000106,53.2143,195.1466,85.1371,274.9742,-5.1221e-05,-1.103e-05,0.0,0 STARLINK-3044,1 49438U 21104AG  23045.10199283 -.00001103  00000-0 -51221-4 0  9995,2 49438  53.2143 195.1466 0001060  85.1371 274.9742 15.08829575 70969,6917.912,95.438,540.511,539.044,0.0
49438.0,STARLINK-3044,PAYLOAD,2023-02-14 13:34:34,15.08858495,0.0001172,53.2138,193.0652,79.7845,280.3279,0.0012977,0.00020436,0.0,0 STARLINK-3044,1 49438U 21104AG  23045.56567476  .00020436  00000-0  12977-2 0  9999,2 49438  53.2138 193.0652 0001172  79.7845 280.3279 15.08858495 69963,6917.824,95.436,540.5,538.878,0.0
49438.0,STARLINK-3044,PAYLOAD,2023-02-14 19:56:06,15.08869931,0.0001183,53.2134,191.8755,85.3225,274.7902,0.0020982,0.0003329,0.0,0 STARLINK-3044,1 49438U 21104AG  23045.83063254  .00033290  00000-0  20982-2 0  9991,2 49438  53.2134 191.8755 0001183  85.3225 274.7902 15.08869931 71078,6917.789,95.436,540.472,538.836,0.0
49438.0,STARLINK-3044,PAYLOAD,2023-02-15 05:28:25,15.08841776,0.0001101,53.213,190.0913,91.7156,268.3962,0.00026256,3.893e-05,0.0,0 STARLINK-3044,1 49438U 21104AG  23046.22807548  .00003893  00000-0  26256-3 0  9994,2 49438  53.2130 190.0913 0001101  91.7156 268.3962 15.08841776 71134,6917.875,95.437,540.502,538.978,0.0
49438.0,STARLINK-3044,PAYLOAD,2023-02-15 11:49:58,15.0886145,0.0001127,53.2131,188.902,96.5528,263.5592,0.0021098,0.00033469,0.0,0 STARLINK-3044,1 49438U 21104AG  23046.49303411  .00033469  00000-0  21098-2 0  9993,2 49438  53.2131 188.9020 0001127  96.5528 263.5592 15.08861450 71175,6917.815,95.436,540.459,538.9,0.0
49438.0,STARLINK-3044,PAYLOAD,2023-02-15 21:22:16,15.08894458,0.0001118,53.2131,187.1179,95.3959,264.716,0.0033286,0.00053166,0.0,0 STARLINK-3044,1 49438U 21104AG  23046.89046543  .00053166  00000-0  33286-2 0  9995,2 49438  53.2131 187.1179 0001118  95.3959 264.7160 15.08894458 70162,6917.714,95.434,540.352,538.806,0.0
49438.0,STARLINK-3044,PAYLOAD,2023-02-16 08:29:58,15.08850141,0.0001129,53.2128,185.0359,74.1873,285.9244,0.00037273,5.651e-05,0.0,0 STARLINK-3044,1 49438U 21104AG  23047.35414807  .00005651  00000-0  37273-3 0  9996,2 49438  53.2128 185.0359 0001129  74.1873 285.9244 15.08850141 71303,6917.849,95.437,540.495,538.933,0.0
49438.0,STARLINK-3044,PAYLOAD,2023-02-16 13:16:07,15.08861361,0.0001108,53.2127,184.1437,75.0771,285.0344,0.001635,0.00025844,0.0,0 STARLINK-3044,1 49438U 21104AG  23047.55286699  .00025844  00000-0  16350-2 0  9992,2 49438  53.2127 184.1437 0001108  75.0771 285.0344 15.08861361 70265,6917.815,95.436,540.447,538.914,0.0
49438.0,STARLINK-3044,PAYLOAD,2023-02-16 21:13:02,15.08884782,0.0001177,53.2126,182.6569,68.0447,292.067,0.0029613,0.00047215,0.0,0 STARLINK-3044,1 49438U 21104AG  23047.88406189  .00047215  00000-0  29613-2 0  9998,2 49438  53.2126 182.6569 0001177  68.0447 292.0670 15.08884782 70319,6917.744,95.435,540.423,538.794,0.0
49438.0,STARLINK-3044,PAYLOAD,2023-02-17 00:23:50,15.08829886,0.0001897,53.2127,182.0629,52.0559,308.0605,-0.00011372,-2.097e-05,0.0,0 STARLINK-3044,1 49438U 21104AG  23048.01655132 -.00002097  00000-0 -11372-3 0  9993,2 49438  53.2127 182.0629 0001897  52.0559 308.0605 15.08829886 71408,6917.911,95.438,541.089,538.464,0.0
49438.0,STARLINK-3044,PAYLOAD,2023-02-17 13:06:55,15.08839981,0.0001109,53.2128,179.6833,86.3631,273.7488,0.0011846,0.00018615,0.0,0 STARLINK-3044,1 49438U 21104AG  23048.54647184  .00018615  00000-0  11846-2 0  9995,2 49438  53.2128 179.6833 0001109  86.3631 273.7488 15.08839981 71487,6917.88,95.438,540.513,538.978,0.0
49438.0,STARLINK-3044,PAYLOAD,2023-02-17 22:39:14,15.08818869,0.0001413,53.2128,177.8992,74.2631,285.8516,1.6494e-05,-2.6e-07,0.0,0 STARLINK-3044,1 49438U 21104AG  23048.94391851 -.00000026  00000-0  16494-4 0  9990,2 49438  53.2128 177.8992 0001413  74.2631 285.8516 15.08818869 70473,6917.945,95.439,540.787,538.832,0.0
49438.0,STARLINK-3044,PAYLOAD,2023-02-18 05:00:47,15.088259,0.0001111,53.2129,176.7096,87.0179,273.094,0.000455,6.958e-05,0.0,0 STARLINK-3044,1 49438U 21104AG  23049.20888030  .00006958  00000-0  45500-3 0  9998,2 49438  53.2129 176.7096 0001111  87.0179 273.0940 15.08825900 71588,6917.923,95.438,540.557,539.02,0.0
